UNKNOWN                 
1 85047U          26055.18574336  .00010287  00000+0  16575-1 0  9991
2 85047 102.1695  41.0212 0110703 221.4362 137.8326 13.46350399586532
UNKNOWN                 
1 85061U          26053.94482813  .00004030  00000+0  15914-1 0  9992
2 85061 102.3975  49.3601 0270762  48.3173 340.8517 12.77564736565004
UNKNOWN                 
1 85100U          26047.83743348  .00000331  00000+0  11153-3 0  9993
2 85100  74.0443 100.5858 0013565 308.8987 172.2845 14.40777872642860
UNKNOWN                 
1 85106U          26053.25735523  .00000593  00000+0  69528-3 0  9997
2 85106 100.0534 162.6341 0010172 187.3082 202.0252 13.73008564612883
UNKNOWN                 
1 85151U          26053.88717051  .00026671  00000+0  33260-2 0  9990
2 85151  98.4005 286.2981 0007818 282.8932  77.1406 14.82363651490201
UNKNOWN                 
1 85210U          26054.89941524  .00000205  00000+0  23450-3 0  9998
2 85210  99.8599 202.9021 0217747 127.5065  22.9965 13.71660521612180
UNKNOWN                 
1 85217U          26055.72020964  .00002260  00000+0  60272-3 0  9990
2 85217  98.0236 150.2837 0205949 264.5492  93.2174 14.37563606638486
UNKNOWN                 
1 85237U          26054.35491965  .00013478  00000+0  26977-2 0  9999
2 85237  65.5338  24.2147 0516167 354.4749   5.0755 14.01835433618525
UNKNOWN                 
1 85238U          26055.64069740  .00000049  00000+0  75287-4 0  9995
2 85238  99.0675 347.7296 0063483   1.7814 118.6497 13.88358069621092
UNKNOWN                 
1 85246U          26055.73610970  .00001371  00000+0  49680-3 0  9997
2 85246  97.9901  57.3031 0224019  85.7071 276.9671 14.21730309633580
UNKNOWN                 
1 85373U          26055.36884583  .00002088  00000+0  14311-2 0  9998
2 85373 100.4249 106.6547 0050515  45.9729  16.8468 14.00363284622430
UNKNOWN                 
1 85425U          26033.71181694  .00000000  00000+0  00000+0 0  9993
2 85425  51.2937 156.4139 6775828 239.1756 342.8295  3.07857636    06
